[{"OBJECT_NAME":"COSMOS 2504","OBJECT_ID":"2015-020D","EPOCH":"2026-03-09T23:13:36.834816","MEAN_MOTION":13.6133253,"ECCENTRICITY":0.06077174,"INCLINATION":82.5183,"RA_OF_ASC_NODE":307.9923,"ARG_OF_PERICENTER":183.8961,"MEAN_ANOMALY":175.7346,"EPHEMERIS_TYPE":0,"CLASSIFICATION_TYPE":"U","NORAD_CAT_ID":40555,"ELEMENT_SET_NO":999,"REV_AT_EPOCH":53669,"BSTAR":0.00011649917,"MEAN_MOTION_DOT":3.31e-6,"MEAN_MOTION_DDOT":0},{"OBJECT_NAME":"NOAA 16 DEB","OBJECT_ID":"2000-055DP","EPOCH":"2026-03-08T08:43:23.740608","MEAN_MOTION":14.21380407,"ECCENTRICITY":0.00225597,"INCLINATION":98.6828,"RA_OF_ASC_NODE":122.1611,"ARG_OF_PERICENTER":63.3903,"MEAN_ANOMALY":296.9582,"EPHEMERIS_TYPE":0,"CLASSIFICATION_TYPE":"U","NORAD_CAT_ID":41210,"ELEMENT_SET_NO":999,"REV_AT_EPOCH":52845,"BSTAR":0.0017643017,"MEAN_MOTION_DOT":3.82e-5,"MEAN_MOTION_DDOT":0}]
